COSMOS 2550             
1 48865U 21056A   25307.47109509  .00005969  00000+0  18707-3 0  9991
2 48865  67.1434  62.7678 0008328 269.9513  90.0687 15.33837542244102
CZ-2C R/B               
1 52794U 22058K   25307.53814189  .00030596  00000+0  59832-3 0  9992
2 52794  50.1917 243.0601 0050083  35.1315 325.2938 15.45753342190564
GSLV R/B                
1 54149U 22138AN  25308.12582766  .00003885  00000+0  34458-3 0  9994
2 54149  87.3858 208.3949 0019110 245.7531 114.1703 14.95806117165155
XRISM                   
1 57800U 23137A   25307.90110677  .00007369  00000+0  43980-3 0  9995
2 57800  31.0033  16.1919 0008238 212.8350 147.1776 15.09726748118755
ACS3                    
1 59588U 24077B   25307.93768300  .00010308  00000+0  93818-2 0  9990
2 59588  97.3297 272.1378 0039559  30.9105 329.4372 13.83072193 76777
